TEVEL2-2                
1 63219U 25052K   26068.64848259  .00020339  00000+0  69428-3 0  9991
2 63219  97.3987 324.7700 0004693 105.7930 254.3828 15.30343745 54855
STARLINK-34168          
1 64079U 25107R   26068.42669957  .00039647  00000+0  14423-2 0  9995
2 64079  43.0020 202.7402 0001303 242.1444 117.9276 15.27585044 46084
